NORAD_CAT_ID,OBJECT_NAME,OBJECT_TYPE,EPOCH,MEAN_MOTION,ECCENTRICITY,INCLINATION,RA_OF_ASC_NODE,ARG_OF_PERICENTER,MEAN_ANOMALY,BSTAR,MEAN_MOTION_DOT,MEAN_MOTION_DDOT,TLE_LINE0,TLE_LINE1,TLE_LINE2,SEMIMAJOR_AXIS,PERIOD,APOGEE,PERIGEE,DECAYED
53863.0,STARLINK-4788,PAYLOAD,2023-11-20 18:44:30,15.08845585,0.0001317,53.2184,94.6578,92.554,267.5602,7.3546e-05,8.83e-06,0.0,0 STARLINK-4788,1 53863U 22114AX  23324.78091421  .00000883  00000-0  73546-4 0  9999,2 53863  53.2184  94.6578 0001317  92.5540 267.5602 15.08845585 66319,6917.863,95.437,540.639,538.817,0.0
53863.0,STARLINK-4788,PAYLOAD,2023-11-21 10:38:22,15.08840202,0.0001333,53.2181,91.6847,88.504,271.6105,-3.5232e-05,-8.49e-06,0.0,0 STARLINK-4788,1 53863U 22114AX  23325.44332164 -.00000849  00000-0 -35232-4 0  9999,2 53863  53.2181  91.6847 0001333  88.5040 271.6105 15.08840202 65875,6917.88,95.438,540.667,538.823,0.0
53863.0,STARLINK-4788,PAYLOAD,2023-11-21 13:49:09,15.08852026,0.0001362,53.2183,91.0903,85.2931,274.8216,-0.00015718,-2.789e-05,0.0,0 STARLINK-4788,1 53863U 22114AX  23325.57579931 -.00002789  00000-0 -15718-3 0  9999,2 53863  53.2183  91.0903 0001362  85.2931 274.8216 15.08852026 66437,6917.844,95.437,540.651,538.766,0.0
53863.0,STARLINK-4788,PAYLOAD,2023-11-21 18:35:18,15.0884492,0.0001361,53.2176,90.1956,92.1414,267.9734,6.1641e-05,6.93e-06,0.0,0 STARLINK-4788,1 53863U 22114AX  23325.77451486  .00000693  00000-0  61641-4 0  9992,2 53863  53.2176  90.1956 0001361  92.1414 267.9734 15.08844920 66464,6917.865,95.437,540.672,538.789,0.0
53863.0,STARLINK-4788,PAYLOAD,2023-11-22 13:39:55,15.08846465,0.0001434,53.2187,86.6294,92.3807,267.7349,0.00010452,1.376e-05,0.0,0 STARLINK-4788,1 53863U 22114AX  23326.56939180  .00001376  00000-0  10452-3 0  9994,2 53863  53.2187  86.6294 0001434  92.3807 267.7349 15.08846465 66589,6917.861,95.437,540.718,538.734,0.0
53863.0,STARLINK-4788,PAYLOAD,2023-11-22 15:15:18,15.08847826,0.000154,53.2195,86.332,94.0861,266.0307,0.00014822,2.072e-05,0.0,0 STARLINK-4788,1 53863U 22114AX  23326.63562964  .00002072  00000-0  14822-3 0  9993,2 53863  53.2195  86.3320 0001540  94.0861 266.0307 15.08847826 66591,6917.856,95.437,540.787,538.656,0.0
53863.0,STARLINK-4788,PAYLOAD,2023-11-23 11:55:20,15.08835461,0.0001382,53.2188,82.4667,96.111,264.004,-3.2011e-05,-7.97e-06,0.0,0 STARLINK-4788,1 53863U 22114AX  23327.49676466 -.00000797  00000-0 -32011-4 0  9996,2 53863  53.2188  82.4667 0001382  96.1110 264.0040 15.08835461 66187,6917.894,95.438,540.715,538.803,0.0
53863.0,STARLINK-4788,PAYLOAD,2023-11-23 13:30:43,15.08836244,0.0001431,53.2188,82.1692,100.9275,259.1879,-3.1077e-05,-7.82e-06,0.0,0 STARLINK-4788,1 53863U 22114AX  23327.56300402 -.00000782  00000-0 -31077-4 0  9993,2 53863  53.2188  82.1692 0001431 100.9275 259.1879 15.08836244 66739,6917.892,95.438,540.747,538.767,0.0
53863.0,STARLINK-4788,PAYLOAD,2023-11-24 13:21:31,15.08837256,0.0001549,53.2192,77.7076,102.1975,257.9191,-5.5825e-05,-1.176e-05,0.0,0 STARLINK-4788,1 53863U 22114AX  23328.55660885 -.00001176  00000-0 -55825-4 0  9992,2 53863  53.2192  77.7076 0001549 102.1975 257.9191 15.08837256 66884,6917.889,95.438,540.825,538.682,0.0
53863.0,STARLINK-4788,PAYLOAD,2023-11-24 16:32:17,15.08838689,0.0001475,53.2184,77.1136,92.281,267.8351,1.4216e-05,-6.2e-07,0.0,0 STARLINK-4788,1 53863U 22114AX  23328.68908718 -.00000062  00000-0  14216-4 0  9997,2 53863  53.2184  77.1136 0001475  92.2810 267.8351 15.08838689 66363,6917.884,95.438,540.77,538.729,0.0
53863.0,STARLINK-4788,PAYLOAD,2023-11-24 19:43:02,15.0884829,0.0001371,53.218,76.5181,88.7688,271.3461,2.522e-05,1.14e-06,0.0,0 STARLINK-4788,1 53863U 22114AX  23328.82156019  .00000114  00000-0  25220-4 0  9996,2 53863  53.2180  76.5181 0001371  88.7688 271.3461 15.08848290 66923,6917.855,95.437,540.668,538.772,0.0
53863.0,STARLINK-4788,PAYLOAD,2023-11-25 13:12:17,15.08844022,0.000178,53.2198,73.2458,92.4119,267.7077,0.00015659,2.205e-05,0.0,0 STARLINK-4788,1 53863U 22114AX  23329.55020355  .00002205  00000-0  15659-3 0  9997,2 53863  53.2198  73.2458 0001780  92.4119 267.7077 15.08844022 67032,6917.868,95.437,540.964,538.502,0.0
53863.0,STARLINK-4788,PAYLOAD,2023-11-25 21:09:12,15.08862177,0.0001415,53.2182,71.7577,97.5109,262.6044,0.00050209,7.717e-05,0.0,0 STARLINK-4788,1 53863U 22114AX  23329.88139539  .00007717  00000-0  50209-3 0  9991,2 53863  53.2182  71.7577 0001415  97.5109 262.6044 15.08862177 67084,6917.813,95.436,540.656,538.699,0.0
53863.0,STARLINK-4788,PAYLOAD,2023-11-26 11:27:41,15.08845414,0.0001569,53.2193,69.0828,81.1666,278.9504,7.239e-05,8.64e-06,0.0,0 STARLINK-4788,1 53863U 22114AX  23330.47756130  .00000864  00000-0  72390-4 0  9992,2 53863  53.2193  69.0828 0001569  81.1666 278.9504 15.08845414 66638,6917.864,95.437,540.814,538.643,0.0
53863.0,STARLINK-4788,PAYLOAD,2023-11-26 13:03:03,15.08853022,0.0002039,53.22,68.7843,55.4311,304.6874,0.00013482,1.859e-05,0.0,0 STARLINK-4788,1 53863U 22114AX  23330.54379604  .00001859  00000-0  13482-3 0  9998,2 53863  53.2200  68.7843 0002039  55.4311 304.6874 15.08853022 67186,6917.841,95.437,541.116,538.295,0.0
53863.0,STARLINK-4788,PAYLOAD,2023-11-27 11:18:29,15.0883474,0.0001563,53.22,64.6184,103.9738,256.1428,-0.00022604,-3.883e-05,0.0,0 STARLINK-4788,1 53863U 22114AX  23331.47117778 -.00003883  00000-0 -22604-3 0  9990,2 53863  53.2200  64.6184 0001563 103.9738 256.1428 15.08834740 66789,6917.896,95.438,540.843,538.68,0.0
53863.0,STARLINK-4788,PAYLOAD,2023-11-27 12:53:53,15.08830879,0.000135,53.22,64.326,95.1501,264.9646,-0.00028545,-4.827e-05,0.0,0 STARLINK-4788,1 53863U 22114AX  23331.53742315 -.00004827  00000-0 -28545-3 0  9997,2 53863  53.2200  64.3260 0001350  95.1501 264.9646 15.08830879 67335,6917.908,95.438,540.707,538.839,0.0
53863.0,STARLINK-4788,PAYLOAD,2023-11-28 11:09:14,15.08861031,0.0001817,53.2207,60.1663,79.3157,280.804,3.6801e-05,2.98e-06,0.0,0 STARLINK-4788,1 53863U 22114AX  23332.46475622  .00000298  00000-0  36801-4 0  9995,2 53863  53.2207  60.1663 0001817  79.3157 280.8040 15.08861031 66936,6917.816,95.436,540.938,538.424,0.0
53863.0,STARLINK-4788,PAYLOAD,2023-11-28 12:44:37,15.08875245,0.0002426,53.2208,59.8699,49.4334,310.6869,0.00021728,3.175e-05,0.0,0 STARLINK-4788,1 53863U 22114AX  23332.53098398  .00003175  00000-0  21728-3 0  9992,2 53863  53.2208  59.8699 0002426  49.4334 310.6869 15.08875245 67487,6917.773,95.435,541.316,537.959,0.0
53863.0,STARLINK-4788,PAYLOAD,2023-11-29 12:35:26,15.08833791,0.0001641,53.2196,55.4052,90.0556,270.0624,0.00026375,3.911e-05,0.0,0 STARLINK-4788,1 53863U 22114AX  23333.52461213  .00003911  00000-0  26375-3 0  9993,2 53863  53.2196  55.4052 0001641  90.0556 270.0624 15.08833791 67099,6917.899,95.438,540.9,538.629,0.0
53863.0,STARLINK-4788,PAYLOAD,2023-11-29 14:10:49,15.08838933,0.0001515,53.219,55.1038,89.7575,270.3591,0.00027187,4.041e-05,0.0,0 STARLINK-4788,1 53863U 22114AX  23333.59084869  .00004041  00000-0  27187-3 0  9995,2 53863  53.2190  55.1038 0001515  89.7575 270.3591 15.08838933 67640,6917.884,95.438,540.797,538.701,0.0
53863.0,STARLINK-4788,PAYLOAD,2023-12-01 12:17:01,15.08843249,0.0001595,53.2196,46.4865,98.4041,261.7132,7.9327e-05,9.75e-06,0.0,0 STARLINK-4788,1 53863U 22114AX  23335.51181819  .00000975  00000-0  79327-4 0  9998,2 53863  53.2196  46.4865 0001595  98.4041 261.7132 15.08843249 67393,6917.87,95.437,540.839,538.632,0.0
53863.0,STARLINK-4788,PAYLOAD,2023-12-02 12:07:45,15.08891655,0.0001514,53.2179,42.0244,77.8979,282.2183,0.00071558,0.00011135,0.0,0 STARLINK-4788,1 53863U 22114AX  23336.50538485  .00011135  00000-0  71558-3 0  9990,2 53863  53.2179  42.0244 0001514  77.8979 282.2183 15.08891655 67544,6917.723,95.434,540.635,538.54,0.0
53863.0,STARLINK-4788,PAYLOAD,2023-12-03 11:58:34,15.08829765,0.0001291,53.2166,37.5662,120.716,239.3959,-0.00033038,-5.54e-05,0.0,0 STARLINK-4788,1 53863U 22114AX  23337.49900942 -.00005540  00000-0 -33038-3 0  9996,2 53863  53.2166  37.5662 0001291 120.7160 239.3959 15.08829765 67698,6917.912,95.438,540.67,538.884,0.0
53863.0,STARLINK-4788,PAYLOAD,2023-12-04 10:13:58,15.08846145,0.0001301,53.2171,33.4049,93.9467,266.1674,-0.00021806,-3.757e-05,0.0,0 STARLINK-4788,1 53863U 22114AX  23338.42637005 -.00003757  00000-0 -21806-3 0  9995,2 53863  53.2171  33.4049 0001301  93.9467 266.1674 15.08846145 67830,6917.862,95.437,540.627,538.827,0.0
53863.0,STARLINK-4788,PAYLOAD,2023-12-05 03:43:14,15.08826543,0.0001782,53.2178,30.135,98.547,261.5724,0.00033226,5.002e-05,0.0,0 STARLINK-4788,1 53863U 22114AX  23339.15502939  .00005002  00000-0  33226-3 0  9995,2 53863  53.2178  30.1350 0001782  98.5470 261.5724 15.08826543 67941,6917.922,95.438,541.019,538.554,0.0
53863.0,STARLINK-4788,PAYLOAD,2023-12-05 10:04:47,15.08824424,0.0001665,53.2181,28.9441,101.7929,258.325,0.00023984,3.53e-05,0.0,0 STARLINK-4788,1 53863U 22114AX  23339.41999206  .00003530  00000-0  23984-3 0  9995,2 53863  53.2181  28.9441 0001665 101.7929 258.3250 15.08824424 68526,6917.928,95.439,540.945,538.641,0.0
53863.0,STARLINK-4788,PAYLOAD,2023-12-06 03:34:01,15.08843223,0.0001684,53.2181,25.6692,116.5048,243.6117,0.00023583,3.468e-05,0.0,0 STARLINK-4788,1 53863U 22114AX  23340.14862475  .00003468  00000-0  23583-3 0  9999,2 53863  53.2181  25.6692 0001684 116.5048 243.6117 15.08843223 68094,6917.871,95.437,540.901,538.571,0.0
53863.0,STARLINK-4788,PAYLOAD,2023-12-06 09:55:33,15.08854891,0.0001562,53.218,24.4816,100.839,259.2778,0.00034965,5.283e-05,0.0,0 STARLINK-4788,1 53863U 22114AX  23340.41357970  .00005283  00000-0  34965-3 0  9991,2 53863  53.2180  24.4816 0001562 100.8390 259.2778 15.08854891 68672,6917.835,95.437,540.78,538.619,0.0
53863.0,STARLINK-4788,PAYLOAD,2023-12-07 09:46:21,15.08828679,0.0001336,53.218,20.0214,103.1139,257.0002,-0.0001837,-3.209e-05,0.0,0 STARLINK-4788,1 53863U 22114AX  23341.40718915 -.00003209  00000-0 -18370-3 0  9991,2 53863  53.2180  20.0214 0001336 103.1139 257.0002 15.08828679 68280,6917.915,95.438,540.704,538.856,0.0
